[{"OBJECT_NAME":"STARLINK-37204","OBJECT_ID":"2026-059J","EPOCH":"2026-04-10T13:12:22.554720","MEAN_MOTION":15.81045923,"ECCENTRICITY":8.87e-5,"INCLINATION":53.1574,"RA_OF_ASC_NODE":203.158,"ARG_OF_PERICENTER":100.3871,"MEAN_ANOMALY":259.7252,"EPHEMERIS_TYPE":0,"CLASSIFICATION_TYPE":"U","NORAD_CAT_ID":68329,"ELEMENT_SET_NO":999,"REV_AT_EPOCH":301,"BSTAR":0.001437,"MEAN_MOTION_DOT":0.00295175,"MEAN_MOTION_DDOT":0},{"OBJECT_NAME":"STARLINK-37001","OBJECT_ID":"2026-059K","EPOCH":"2026-04-10T12:00:02.000160","MEAN_MOTION":15.71306295,"ECCENTRICITY":0.0001029,"INCLINATION":53.1593,"RA_OF_ASC_NODE":203.4705,"ARG_OF_PERICENTER":54.5481,"MEAN_ANOMALY":348.4141,"EPHEMERIS_TYPE":0,"CLASSIFICATION_TYPE":"U","NORAD_CAT_ID":68330,"ELEMENT_SET_NO":999,"REV_AT_EPOCH":415,"BSTAR":-0.017276,"MEAN_MOTION_DOT":-0.0197749,"MEAN_MOTION_DDOT":0},{"OBJECT_NAME":"STARLINK-36932","OBJECT_ID":"2026-059L","EPOCH":"2026-04-10T13:09:09.036000","MEAN_MOTION":15.80969176,"ECCENTRICITY":0.0001152,"INCLINATION":53.1575,"RA_OF_ASC_NODE":203.1425,"ARG_OF_PERICENTER":74.0619,"MEAN_ANOMALY":286.0531,"EPHEMERIS_TYPE":0,"CLASSIFICATION_TYPE":"U","NORAD_CAT_ID":68331,"ELEMENT_SET_NO":999,"REV_AT_EPOCH":301,"BSTAR":0.0010364,"MEAN_MOTION_DOT":0.00209837,"MEAN_MOTION_DDOT":0},{"OBJECT_NAME":"STARLINK-37205","OBJECT_ID":"2026-059M","EPOCH":"2026-04-10T13:08:04.210080","MEAN_MOTION":15.80972834,"ECCENTRICITY":9.81e-5,"INCLINATION":53.1575,"RA_OF_ASC_NODE":203.1375,"ARG_OF_PERICENTER":107.2344,"MEAN_ANOMALY":252.8786,"EPHEMERIS_TYPE":0,"CLASSIFICATION_TYPE":"U","NORAD_CAT_ID":68332,"ELEMENT_SET_NO":999,"REV_AT_EPOCH":301,"BSTAR":0.0011076,"MEAN_MOTION_DOT":0.00224723,"MEAN_MOTION_DDOT":0},{"OBJECT_NAME":"STARLINK-37180","OBJECT_ID":"2026-059N","EPOCH":"2026-04-10T12:00:02.000160","MEAN_MOTION":15.68792366,"ECCENTRICITY":0.0001078,"INCLINATION":53.1596,"RA_OF_ASC_NODE":203.4913,"ARG_OF_PERICENTER":56.7205,"MEAN_ANOMALY":335.6598,"EPHEMERIS_TYPE":0,"CLASSIFICATION_TYPE":"U","NORAD_CAT_ID":68333,"ELEMENT_SET_NO":999,"REV_AT_EPOCH":415,"BSTAR":-0.019124,"MEAN_MOTION_DOT":-0.01970258,"MEAN_MOTION_DDOT":0},{"OBJECT_NAME":"STARLINK-37191","OBJECT_ID":"2026-059P","EPOCH":"2026-04-10T13:05:54.534048","MEAN_MOTION":15.8097027,"ECCENTRICITY":0.0001028,"INCLINATION":53.1577,"RA_OF_ASC_NODE":203.1274,"ARG_OF_PERICENTER":86.9859,"MEAN_ANOMALY":273.1281,"EPHEMERIS_TYPE":0,"CLASSIFICATION_TYPE":"U","NORAD_CAT_ID":68334,"ELEMENT_SET_NO":999,"REV_AT_EPOCH":301,"BSTAR":0.0010854,"MEAN_MOTION_DOT":0.00220052,"MEAN_MOTION_DDOT":0},{"OBJECT_NAME":"STARLINK-37217","OBJECT_ID":"2026-059Q","EPOCH":"2026-04-10T13:04:49.798848","MEAN_MOTION":15.80953501,"ECCENTRICITY":0.0001076,"INCLINATION":53.1581,"RA_OF_ASC_NODE":203.1216,"ARG_OF_PERICENTER":85.38,"MEAN_ANOMALY":274.7345,"EPHEMERIS_TYPE":0,"CLASSIFICATION_TYPE":"U","NORAD_CAT_ID":68335,"ELEMENT_SET_NO":999,"REV_AT_EPOCH":301,"BSTAR":0.00093717,"MEAN_MOTION_DOT":0.00189074,"MEAN_MOTION_DDOT":0},{"OBJECT_NAME":"STARLINK-37143","OBJECT_ID":"2026-059R","EPOCH":"2026-04-10T11:32:42.923040","MEAN_MOTION":15.80908068,"ECCENTRICITY":0.0001186,"INCLINATION":53.1574,"RA_OF_ASC_NODE":203.4336,"ARG_OF_PERICENTER":113.8218,"MEAN_ANOMALY":246.2929,"EPHEMERIS_TYPE":0,"CLASSIFICATION_TYPE":"U","NORAD_CAT_ID":68336,"ELEMENT_SET_NO":999,"REV_AT_EPOCH":300,"BSTAR":0.00039872,"MEAN_MOTION_DOT":0.00078845,"MEAN_MOTION_DDOT":0},{"OBJECT_NAME":"STARLINK-36237","OBJECT_ID":"2026-059S","EPOCH":"2026-04-10T11:31:38.153280","MEAN_MOTION":15.80918502,"ECCENTRICITY":0.0001157,"INCLINATION":53.1582,"RA_OF_ASC_NODE":203.4289,"ARG_OF_PERICENTER":69.5586,"MEAN_ANOMALY":290.5561,"EPHEMERIS_TYPE":0,"CLASSIFICATION_TYPE":"U","NORAD_CAT_ID":68337,"ELEMENT_SET_NO":999,"REV_AT_EPOCH":300,"BSTAR":0.00055376,"MEAN_MOTION_DOT":0.00110232,"MEAN_MOTION_DDOT":0},{"OBJECT_NAME":"STARLINK-36254","OBJECT_ID":"2026-059T","EPOCH":"2026-04-10T11:29:28.441824","MEAN_MOTION":15.80928936,"ECCENTRICITY":7.75e-5,"INCLINATION":53.1579,"RA_OF_ASC_NODE":203.4184,"ARG_OF_PERICENTER":80.2088,"MEAN_ANOMALY":279.9023,"EPHEMERIS_TYPE":0,"CLASSIFICATION_TYPE":"U","NORAD_CAT_ID":68338,"ELEMENT_SET_NO":999,"REV_AT_EPOCH":300,"BSTAR":0.00067396,"MEAN_MOTION_DOT":0.0013476,"MEAN_MOTION_DDOT":0},{"OBJECT_NAME":"STARLINK-37200","OBJECT_ID":"2026-059U","EPOCH":"2026-04-10T11:30:33.328224","MEAN_MOTION":15.80919096,"ECCENTRICITY":9.78e-5,"INCLINATION":53.158,"RA_OF_ASC_NODE":203.4238,"ARG_OF_PERICENTER":74.3377,"MEAN_ANOMALY":285.7754,"EPHEMERIS_TYPE":0,"CLASSIFICATION_TYPE":"U","NORAD_CAT_ID":68339,"ELEMENT_SET_NO":999,"REV_AT_EPOCH":300,"BSTAR":0.0006058,"MEAN_MOTION_DOT":0.00120809,"MEAN_MOTION_DDOT":0},{"OBJECT_NAME":"STARLINK-37185","OBJECT_ID":"2026-059V","EPOCH":"2026-04-10T11:28:23.259072","MEAN_MOTION":15.80962552,"ECCENTRICITY":7.85e-5,"INCLINATION":53.1582,"RA_OF_ASC_NODE":203.4136,"ARG_OF_PERICENTER":76.3413,"MEAN_ANOMALY":283.7697,"EPHEMERIS_TYPE":0,"CLASSIFICATION_TYPE":"U","NORAD_CAT_ID":68340,"ELEMENT_SET_NO":999,"REV_AT_EPOCH":300,"BSTAR":0.00086246,"MEAN_MOTION_DOT":0.00173706,"MEAN_MOTION_DDOT":0},{"OBJECT_NAME":"STARLINK-37181","OBJECT_ID":"2026-059W","EPOCH":"2026-04-10T11:27:18.548064","MEAN_MOTION":15.80953921,"ECCENTRICITY":0.0001236,"INCLINATION":53.158,"RA_OF_ASC_NODE":203.4085,"ARG_OF_PERICENTER":60.2166,"MEAN_ANOMALY":299.898,"EPHEMERIS_TYPE":0,"CLASSIFICATION_TYPE":"U","NORAD_CAT_ID":68341,"ELEMENT_SET_NO":999,"REV_AT_EPOCH":300,"BSTAR":0.00092108,"MEAN_MOTION_DOT":0.00185746,"MEAN_MOTION_DDOT":0},{"OBJECT_NAME":"STARLINK-37192","OBJECT_ID":"2026-059X","EPOCH":"2026-04-10T12:00:02.000160","MEAN_MOTION":15.6690015,"ECCENTRICITY":0.000112,"INCLINATION":53.1595,"RA_OF_ASC_NODE":203.4469,"ARG_OF_PERICENTER":54.6831,"MEAN_ANOMALY":359.2341,"EPHEMERIS_TYPE":0,"CLASSIFICATION_TYPE":"U","NORAD_CAT_ID":68342,"ELEMENT_SET_NO":999,"REV_AT_EPOCH":415,"BSTAR":-0.020592,"MEAN_MOTION_DOT":-0.01963179,"MEAN_MOTION_DDOT":0},{"OBJECT_NAME":"STARLINK-37158","OBJECT_ID":"2026-059Y","EPOCH":"2026-04-10T12:55:06.254976","MEAN_MOTION":15.80952755,"ECCENTRICITY":0.0001481,"INCLINATION":53.1583,"RA_OF_ASC_NODE":203.0766,"ARG_OF_PERICENTER":49.8792,"MEAN_ANOMALY":310.2361,"EPHEMERIS_TYPE":0,"CLASSIFICATION_TYPE":"U","NORAD_CAT_ID":68343,"ELEMENT_SET_NO":999,"REV_AT_EPOCH":301,"BSTAR":0.00080881,"MEAN_MOTION_DOT":0.00162572,"MEAN_MOTION_DDOT":0},{"OBJECT_NAME":"STARLINK-36380","OBJECT_ID":"2026-059Z","EPOCH":"2026-04-10T11:26:14.059104","MEAN_MOTION":15.8095644,"ECCENTRICITY":0.0001249,"INCLINATION":53.1578,"RA_OF_ASC_NODE":203.4034,"ARG_OF_PERICENTER":98.5468,"MEAN_ANOMALY":261.5696,"EPHEMERIS_TYPE":0,"CLASSIFICATION_TYPE":"U","NORAD_CAT_ID":68344,"ELEMENT_SET_NO":999,"REV_AT_EPOCH":300,"BSTAR":0.0010668,"MEAN_MOTION_DOT":0.00216031,"MEAN_MOTION_DDOT":0},{"OBJECT_NAME":"STARLINK-37214","OBJECT_ID":"2026-059AA","EPOCH":"2026-04-10T11:21:54.683712","MEAN_MOTION":15.80939447,"ECCENTRICITY":9.53e-5,"INCLINATION":53.1585,"RA_OF_ASC_NODE":203.3825,"ARG_OF_PERICENTER":84.3429,"MEAN_ANOMALY":275.7702,"EPHEMERIS_TYPE":0,"CLASSIFICATION_TYPE":"U","NORAD_CAT_ID":68345,"ELEMENT_SET_NO":999,"REV_AT_EPOCH":300,"BSTAR":0.00079157,"MEAN_MOTION_DOT":0.00158924,"MEAN_MOTION_DDOT":0}]
