STARLINK-37204          
1 68329U 26059J   26100.55026105  .00295175  00000+0  14370-2 0  9998
2 68329  53.1574 203.1580 0000887 100.3871 259.7252 15.81045923  3011
STARLINK-37001          
1 68330U 26059K   26100.50002315 -.01977490  00000+0 -17276-1 0  9999
2 68330  53.1593 203.4705 0001029  54.5481 348.4141 15.71306295  4152
STARLINK-36932          
1 68331U 26059L   26100.54802125  .00209837  00000+0  10364-2 0  9993
2 68331  53.1575 203.1425 0001152  74.0619 286.0531 15.80969176  3013
STARLINK-37205          
1 68332U 26059M   26100.54727095  .00224723  00000+0  11076-2 0  9998
2 68332  53.1575 203.1375 0000981 107.2344 252.8786 15.80972834  3019
STARLINK-37180          
1 68333U 26059N   26100.50002315 -.01970258  00000+0 -19124-1 0  9991
2 68333  53.1596 203.4913 0001078  56.7205 335.6598 15.68792366  4159
STARLINK-37191          
1 68334U 26059P   26100.54577007  .00220052  00000+0  10854-2 0  9990
2 68334  53.1577 203.1274 0001028  86.9859 273.1281 15.80970270  3016
STARLINK-37217          
1 68335U 26059Q   26100.54502082  .00189074  00000+0  93717-3 0  9990
2 68335  53.1581 203.1216 0001076  85.3800 274.7345 15.80953501  3016
STARLINK-37143          
1 68336U 26059R   26100.48105235  .00078845  00000+0  39872-3 0  9998
2 68336  53.1574 203.4336 0001186 113.8218 246.2929 15.80908068  3006
STARLINK-36237          
1 68337U 26059S   26100.48030270  .00110232  00000+0  55376-3 0  9999
2 68337  53.1582 203.4289 0001157  69.5586 290.5561 15.80918502  3004
STARLINK-36254          
1 68338U 26059T   26100.47880141  .00134760  00000+0  67396-3 0  9996
2 68338  53.1579 203.4184 0000775  80.2088 279.9023 15.80928936  3003
STARLINK-37200          
1 68339U 26059U   26100.47955241  .00120809  00000+0  60580-3 0  9998
2 68339  53.1580 203.4238 0000978  74.3377 285.7754 15.80919096  3009
STARLINK-37185          
1 68340U 26059V   26100.47804698  .00173706  00000+0  86246-3 0  9990
2 68340  53.1582 203.4136 0000785  76.3413 283.7697 15.80962552  3008
STARLINK-37181          
1 68341U 26059W   26100.47729801  .00185746  00000+0  92108-3 0  9994
2 68341  53.1580 203.4085 0001236  60.2166 299.8980 15.80953921  3002
STARLINK-37192          
1 68342U 26059X   26100.50002315 -.01963179  00000+0 -20592-1 0  9996
2 68342  53.1595 203.4469 0001120  54.6831 359.2341 15.66900150  4152
STARLINK-37158          
1 68343U 26059Y   26100.53826684  .00162572  00000+0  80881-3 0  9997
2 68343  53.1583 203.0766 0001481  49.8792 310.2361 15.80952755  3015
STARLINK-36380          
1 68344U 26059Z   26100.47655161  .00216031  00000+0  10668-2 0  9996
2 68344  53.1578 203.4034 0001249  98.5468 261.5696 15.80956440  3008
STARLINK-37214          
1 68345U 26059AA  26100.47354958  .00158924  00000+0  79157-3 0  9992
2 68345  53.1585 203.3825 0000953  84.3429 275.7702 15.80939447  3008
